{"type": "FeatureCollection", "features": [ {"type": "Feature", "properties": {"norad_id": 37834, "name": "INTELSAT 18 (IS-18)", "group": "intelsat", "lat": 0.04187861525645138, "lon": 54.22917291499396, "alt_km": 35794.533826683626, "timestamp": "2025-12-02T10:50:46.941181+00:00", "meta": {"OBJECT_NAME": "INTELSAT 18 (IS-18)", "OBJECT_ID": "2011-056A", "EPOCH": "2025-12-01T18:05:38.025312", "MEAN_MOTION": 1.00270857, "ECCENTRICITY": 0.000202, "INCLINATION": 0.0193, "RA_OF_ASC_NODE": 320.1587, "ARG_OF_PERICENTER": 289.5607, "MEAN_ANOMALY": 272.5588, "EPHEMERIS_TYPE": 0, "CLASSIFICATION_TYPE": "U", "NORAD_CAT_ID": 37834, "ELEMENT_SET_NO": 999, "REV_AT_EPOCH": 5183, "BSTAR": 0, "MEAN_MOTION_DOT": 7.4e-07, "MEAN_MOTION_DDOT": 0}, "tle": {"line1": "1 37834U 11056A   25335.75391233  .00000074  00000+0  00000+0 0  9998", "line2": "2 37834   0.0193 320.1587 0002020 289.5607 272.5588  1.00270857 51831"}}, "geometry": {"type": "Point", "coordinates": [54.22917291499396, 0.04187861525645138]}}, {"type": "Feature", "properties": {"norad_id": 38098, "name": "INTELSAT 22 (IS-22)", "group": "intelsat", "lat": -0.007823915355392345, "lon": -53.653458535488, "alt_km": 35781.09805373437, "timestamp": "2025-12-02T10:50:46.941193+00:00", "meta": {"OBJECT_NAME": "INTELSAT 22 (IS-22)", "OBJECT_ID": "2012-011A", "EPOCH": "2025-12-02T04:00:38.578752", "MEAN_MOTION": 1.00271784, "ECCENTRICITY": 0.0001721, "INCLINATION": 0.0023, "RA_OF_ASC_NODE": 359.2289, "ARG_OF_PERICENTER": 260.3702, "MEAN_ANOMALY": 303.9458, "EPHEMERIS_TYPE": 0, "CLASSIFICATION_TYPE": "U", "NORAD_CAT_ID": 38098, "ELEMENT_SET_NO": 999, "REV_AT_EPOCH": 521, "BSTAR": 0, "MEAN_MOTION_DOT": -3.8e-07, "MEAN_MOTION_DDOT": 0}, "tle": {"line1": "1 38098U 12011A   25336.16711318 -.00000038  00000+0  00000+0 0  9990", "line2": "2 38098   0.0023 359.2289 0001721 260.3702 303.9458  1.00271784  5214"}}, "geometry": {"type": "Point", "coordinates": [-53.653458535488, -0.007823915355392345]}}, {"type": "Feature", "properties": {"norad_id": 38356, "name": "INTELSAT 19 (IS-19)", "group": "intelsat", "lat": 0.0342602034533172, "lon": 40.26545992744585, "alt_km": 35797.76936268495, "timestamp": "2025-12-02T10:50:46.941206+00:00", "meta": {"OBJECT_NAME": "INTELSAT 19 (IS-19)", "OBJECT_ID": "2012-030A", "EPOCH": "2025-12-02T03:49:38.726400", "MEAN_MOTION": 1.00271628, "ECCENTRICITY": 0.0003413, "INCLINATION": 0.0107, "RA_OF_ASC_NODE": 318.3189, "ARG_OF_PERICENTER": 298.3384, "MEAN_ANOMALY": 38.041, "EPHEMERIS_TYPE": 0, "CLASSIFICATION_TYPE": "U", "NORAD_CAT_ID": 38356, "ELEMENT_SET_NO": 999, "REV_AT_EPOCH": 4847, "BSTAR": 0, "MEAN_MOTION_DOT": -3.5e-07, "MEAN_MOTION_DDOT": 0}, "tle": {"line1": "1 38356U 12030A   25336.15947600 -.00000035  00000+0  00000+0 0  9999", "line2": "2 38356   0.0107 318.3189 0003413 298.3384  38.0410  1.00271628 48472"}}, "geometry": {"type": "Point", "coordinates": [40.26545992744585, 0.0342602034533172]}}, {"type": "Feature", "properties": {"norad_id": 38740, "name": "INTELSAT 20 (IS-20)", "group": "intelsat", "lat": -0.009469360958538432, "lon": -57.26618544939526, "alt_km": 35791.926607879686, "timestamp": "2025-12-02T10:50:46.941217+00:00", "meta": {"OBJECT_NAME": "INTELSAT 20 (IS-20)", "OBJECT_ID": "2012-043A", "EPOCH": "2025-12-02T00:24:39.917952", "MEAN_MOTION": 1.00268447, "ECCENTRICITY": 0.0003085, "INCLINATION": 0.0115, "RA_OF_ASC_NODE": 324.2147, "ARG_OF_PERICENTER": 225.9347, "MEAN_ANOMALY": 315.6275, "EPHEMERIS_TYPE": 0, "CLASSIFICATION_TYPE": "U", "NORAD_CAT_ID": 38740, "ELEMENT_SET_NO": 999, "REV_AT_EPOCH": 4877, "BSTAR": 0, "MEAN_MOTION_DOT": 0, "MEAN_MOTION_DDOT": 0}, "tle": {"line1": "1 38740U 12043A   25336.01712868  .00000000  00000+0  00000+0 0  9992", "line2": "2 38740   0.0115 324.2147 0003085 225.9347 315.6275  1.00268447 48779"}}, "geometry": {"type": "Point", "coordinates": [-57.26618544939526, -0.009469360958538432]}}, {"type": "Feature", "properties": {"norad_id": 38749, "name": "INTELSAT 21 (IS-21)", "group": "intelsat", "lat": -0.028539464020839216, "lon": 176.20425829042324, "alt_km": 35783.23290265281, "timestamp": "2025-12-02T10:50:46.941229+00:00", "meta": {"OBJECT_NAME": "INTELSAT 21 (IS-21)", "OBJECT_ID": "2012-045A", "EPOCH": "2025-12-02T03:14:06.383904", "MEAN_MOTION": 1.00268012, "ECCENTRICITY": 0.000237, "INCLINATION": 0.0159, "RA_OF_ASC_NODE": 309.9102, "ARG_OF_PERICENTER": 293.1144, "MEAN_ANOMALY": 178.756, "EPHEMERIS_TYPE": 0, "CLASSIFICATION_TYPE": "U", "NORAD_CAT_ID": 38749, "ELEMENT_SET_NO": 999, "REV_AT_EPOCH": 4854, "BSTAR": 0, "MEAN_MOTION_DOT": -2.64e-06, "MEAN_MOTION_DDOT": 0}, "tle": {"line1": "1 38749U 12045A   25336.13479611 -.00000264  00000+0  00000+0 0  9995", "line2": "2 38749   0.0159 309.9102 0002370 293.1144 178.7560  1.00268012 48543"}}, "geometry": {"type": "Point", "coordinates": [176.20425829042324, -0.028539464020839216]}}, {"type": "Feature", "properties": {"norad_id": 38867, "name": "INTELSAT 23 (IS-23)", "group": "intelsat", "lat": -0.009618119040349747, "lon": -178.78502242800337, "alt_km": 35780.02122544769, "timestamp": "2025-12-02T10:50:46.941241+00:00", "meta": {"OBJECT_NAME": "INTELSAT 23 (IS-23)", "OBJECT_ID": "2012-057A", "EPOCH": "2025-12-02T03:15:36.240768", "MEAN_MOTION": 1.00270538, "ECCENTRICITY": 0.0001786, "INCLINATION": 0.04, "RA_OF_ASC_NODE": 123.4434, "ARG_OF_PERICENTER": 88.7731, "MEAN_ANOMALY": 214.9328, "EPHEMERIS_TYPE": 0, "CLASSIFICATION_TYPE": "U", "NORAD_CAT_ID": 38867, "ELEMENT_SET_NO": 999, "REV_AT_EPOCH": 4797, "BSTAR": 0, "MEAN_MOTION_DOT": -2.64e-06, "MEAN_MOTION_DDOT": 0}, "tle": {"line1": "1 38867U 12057A   25336.13583612 -.00000264  00000+0  00000+0 0  9996", "line2": "2 38867   0.0400 123.4434 0001786  88.7731 214.9328  1.00270538 47977"}}, "geometry": {"type": "Point", "coordinates": [-178.78502242800337, -0.009618119040349747]}}, {"type": "Feature", "properties": {"norad_id": 39360, "name": "FM-6", "group": "intelsat", "lat": -0.000784208983066943, "lon": 118.0425598792215, "alt_km": 35779.2608602791, "timestamp": "2025-12-02T10:50:46.941252+00:00", "meta": {"OBJECT_NAME": "FM-6", "OBJECT_ID": "2013-058A", "EPOCH": "2025-12-02T02:57:32.706144", "MEAN_MOTION": 1.00270916, "ECCENTRICITY": 0.0002945, "INCLINATION": 0.004, "RA_OF_ASC_NODE": 106.4225, "ARG_OF_PERICENTER": 66.6497, "MEAN_ANOMALY": 186.3941, "EPHEMERIS_TYPE": 0, "CLASSIFICATION_TYPE": "U", "NORAD_CAT_ID": 39360, "ELEMENT_SET_NO": 999, "REV_AT_EPOCH": 4409, "BSTAR": 0, "MEAN_MOTION_DOT": 4e-08, "MEAN_MOTION_DDOT": 0}, "tle": {"line1": "1 39360U 13058A   25336.12329521  .00000004  00000+0  00000+0 0  9994", "line2": "2 39360   0.0040 106.4225 0002945  66.6497 186.3941  1.00270916 44090"}}, "geometry": {"type": "Point", "coordinates": [118.0425598792215, -0.000784208983066943]}}, {"type": "Feature", "properties": {"norad_id": 40271, "name": "INTELSAT 30 (IS-30)", "group": "intelsat", "lat": 0.007763990138096455, "lon": 139.199728818604, "alt_km": 35781.191668435546, "timestamp": "2025-12-02T10:50:46.941264+00:00", "meta": {"OBJECT_NAME": "INTELSAT 30 (IS-30)", "OBJECT_ID": "2014-062A", "EPOCH": "2025-12-02T01:21:41.954112", "MEAN_MOTION": 1.00274289, "ECCENTRICITY": 0.0001535, "INCLINATION": 0.0117, "RA_OF_ASC_NODE": 354.2124, "ARG_OF_PERICENTER": 95.5309, "MEAN_ANOMALY": 266.8075, "EPHEMERIS_TYPE": 0, "CLASSIFICATION_TYPE": "U", "NORAD_CAT_ID": 40271, "ELEMENT_SET_NO": 999, "REV_AT_EPOCH": 480, "BSTAR": 0, "MEAN_MOTION_DOT": -1.3e-06, "MEAN_MOTION_DDOT": 0}, "tle": {"line1": "1 40271U 14062A   25336.05673558 -.00000130  00000+0  00000+0 0  9998", "line2": "2 40271   0.0117 354.2124 0001535  95.5309 266.8075  1.00274289  4800"}}, "geometry": {"type": "Point", "coordinates": [139.199728818604, 0.007763990138096455]}}, {"type": "Feature", "properties": {"norad_id": 40333, "name": "DIRECTV 14", "group": "intelsat", "lat": 0.0030744069501972655, "lon": 135.00879318130364, "alt_km": 35783.63437216399, "timestamp": "2025-12-02T10:50:46.941275+00:00", "meta": {"OBJECT_NAME": "DIRECTV 14", "OBJECT_ID": "2014-078B", "EPOCH": "2025-12-02T01:19:42.144960", "MEAN_MOTION": 1.00274468, "ECCENTRICITY": 4.16e-05, "INCLINATION": 0.0199, "RA_OF_ASC_NODE": 323.8668, "ARG_OF_PERICENTER": 183.3129, "MEAN_ANOMALY": 204.6938, "EPHEMERIS_TYPE": 0, "CLASSIFICATION_TYPE": "U", "NORAD_CAT_ID": 40333, "ELEMENT_SET_NO": 999, "REV_AT_EPOCH": 4006, "BSTAR": 0, "MEAN_MOTION_DOT": -1.05e-06, "MEAN_MOTION_DDOT": 0}, "tle": {"line1": "1 40333U 14078B   25336.05534890 -.00000105  00000+0  00000+0 0  9991", "line2": "2 40333   0.0199 323.8668 0000416 183.3129 204.6938  1.00274468 40062"}}, "geometry": {"type": "Point", "coordinates": [135.00879318130364, 0.0030744069501972655]}}, {"type": "Feature", "properties": {"norad_id": 40663, "name": "DIRECTV 15", "group": "intelsat", "lat": 0.019014910434208884, "lon": 131.34801214972575, "alt_km": 35786.895141807014, "timestamp": "2025-12-02T10:50:46.941287+00:00", "meta": {"OBJECT_NAME": "DIRECTV 15", "OBJECT_ID": "2015-026A", "EPOCH": "2025-12-01T15:02:03.106176", "MEAN_MOTION": 1.00270344, "ECCENTRICITY": 2.26e-05, "INCLINATION": 0.0414, "RA_OF_ASC_NODE": 104.2593, "ARG_OF_PERICENTER": 141.9124, "MEAN_ANOMALY": 307.2148, "EPHEMERIS_TYPE": 0, "CLASSIFICATION_TYPE": "U", "NORAD_CAT_ID": 40663, "ELEMENT_SET_NO": 999, "REV_AT_EPOCH": 3848, "BSTAR": 0, "MEAN_MOTION_DOT": -8.1e-07, "MEAN_MOTION_DDOT": 0}, "tle": {"line1": "1 40663U 15026A   25335.62642484 -.00000081  00000+0  00000+0 0  9995", "line2": "2 40663   0.0414 104.2593 0000226 141.9124 307.2148  1.00270344 38485"}}, "geometry": {"type": "Point", "coordinates": [131.34801214972575, 0.019014910434208884]}}]}